[{"OBJECT_NAME":"STARLINK-31476","OBJECT_ID":"2024-073N","EPOCH":"2026-03-09T00:49:04.018656","MEAN_MOTION":15.27579294,"ECCENTRICITY":0.0001693,"INCLINATION":43.0016,"RA_OF_ASC_NODE":321.8672,"ARG_OF_PERICENTER":264.7192,"MEAN_ANOMALY":95.3466,"EPHEMERIS_TYPE":0,"CLASSIFICATION_TYPE":"U","NORAD_CAT_ID":59523,"ELEMENT_SET_NO":999,"REV_AT_EPOCH":10607,"BSTAR":-6.9917098e-5,"MEAN_MOTION_DOT":-2.186e-5,"MEAN_MOTION_DDOT":0},{"OBJECT_NAME":"CZ-4C DEB","OBJECT_ID":"2007-055C","EPOCH":"2026-03-09T22:46:15.652128","MEAN_MOTION":15.30523578,"ECCENTRICITY":0.00469709,"INCLINATION":97.8668,"RA_OF_ASC_NODE":247.2248,"ARG_OF_PERICENTER":277.363,"MEAN_ANOMALY":82.2273,"EPHEMERIS_TYPE":0,"CLASSIFICATION_TYPE":"U","NORAD_CAT_ID":35248,"ELEMENT_SET_NO":999,"REV_AT_EPOCH":97353,"BSTAR":0.0018809895,"MEAN_MOTION_DOT":0.000577,"MEAN_MOTION_DDOT":0}]
